STARLINK-1470           
1 45772U 20038AU  26068.60892913  .00054678  00000+0  19687-2 0  9990
2 45772  53.0480 174.6971 0002444  12.8687 347.2373 15.28074860317065
STARLINK-30716          
1 57936U 23148B   26068.26184277 -.00000498  00000+0 -46818-5 0  9991
2 57936  53.1622  26.4173 0001251 100.2139 259.9003 15.30191740138358
